<?xml version="1.0" encoding="UTF-8"?>
<kml xmlns="http://www.opengis.net/kml/2.2">
  <Document>
    <name>Tokyo</name>
    <Folder>
      <name>Places</name>
      <Placemark>
        <name>Sensō-ji</name>
        <Point>
          <coordinates>139.7967,35.7148,0</coordinates>
        </Point>
      </Placemark>
      <Placemark>
        <name>Tokyo Skytree</name>
        <Point>
          <coordinates>139.8107,35.7101,0</coordinates>
        </Point>
      </Placemark>
      <Placemark>
        <name>Kappabashi Street</name>
        <Point>
          <coordinates>139.788,35.7136,0</coordinates>
        </Point>
      </Placemark>
      <Placemark>
        <name>Ueno Park</name>
        <Point>
          <coordinates>139.7745,35.7156,0</coordinates>
        </Point>
      </Placemark>
      <Placemark>
        <name>Tokyo National Museum</name>
        <Point>
          <coordinates>139.7765,35.7188,0</coordinates>
        </Point>
      </Placemark>
      <Placemark>
        <name>Ameya-Yokochō</name>
        <Point>
          <coordinates>139.7745,35.7101,0</coordinates>
        </Point>
      </Placemark>
      <Placemark>
        <name>Yanaka Ginza</name>
        <Point>
          <coordinates>139.7662,35.7276,0</coordinates>
        </Point>
      </Placemark>
      <Placemark>
        <name>Rikugien Garden</name>
        <Point>
          <coordinates>139.7466,35.733,0</coordinates>
        </Point>
      </Placemark>
      <Placemark>
        <name>Akihabara Electric Town</name>
        <Point>
          <coordinates>139.7731,35.6984,0</coordinates>
        </Point>
      </Placemark>
      <Placemark>
        <name>Kanda Myōjin</name>
        <Point>
          <coordinates>139.7679,35.702,0</coordinates>
        </Point>
      </Placemark>
      <Placemark>
        <name>Tokyo Station</name>
        <Point>
          <coordinates>139.7671,35.6812,0</coordinates>
        </Point>
      </Placemark>
      <Placemark>
        <name>Imperial Palace East Gardens</name>
        <Point>
          <coordinates>139.7528,35.6852,0</coordinates>
        </Point>
      </Placemark>
      <Placemark>
        <name>Ginza</name>
        <Point>
          <coordinates>139.765,35.6717,0</coordinates>
        </Point>
      </Placemark>
      <Placemark>
        <name>Tsukiji Outer Market</name>
        <Point>
          <coordinates>139.7707,35.6654,0</coordinates>
        </Point>
      </Placemark>
      <Placemark>
        <name>Hama-rikyū Gardens</name>
        <Point>
          <coordinates>139.763,35.66,0</coordinates>
        </Point>
      </Placemark>
      <Placemark>
        <name>teamLab Planets</name>
        <Point>
          <coordinates>139.7898,35.6491,0</coordinates>
        </Point>
      </Placemark>
      <Placemark>
        <name>Odaiba Seaside Park</name>
        <Point>
          <coordinates>139.7738,35.6298,0</coordinates>
        </Point>
      </Placemark>
      <Placemark>
        <name>Tokyo Tower</name>
        <Point>
          <coordinates>139.7454,35.6586,0</coordinates>
        </Point>
      </Placemark>
      <Placemark>
        <name>Zōjō-ji</name>
        <Point>
          <coordinates>139.7484,35.6575,0</coordinates>
        </Point>
      </Placemark>
      <Placemark>
        <name>Mori Art Museum</name>
        <Point>
          <coordinates>139.7292,35.6605,0</coordinates>
        </Point>
      </Placemark>
      <Placemark>
        <name>Meiji Jingū</name>
        <Point>
          <coordinates>139.6993,35.6764,0</coordinates>
        </Point>
      </Placemark>
      <Placemark>
        <name>Takeshita Street</name>
        <Point>
          <coordinates>139.703,35.6716,0</coordinates>
        </Point>
      </Placemark>
      <Placemark>
        <name>Omotesandō</name>
        <Point>
          <coordinates>139.709,35.6674,0</coordinates>
        </Point>
      </Placemark>
      <Placemark>
        <name>Shibuya Crossing</name>
        <Point>
          <coordinates>139.7005,35.6595,0</coordinates>
        </Point>
      </Placemark>
      <Placemark>
        <name>Shibuya Sky</name>
        <Point>
          <coordinates>139.7022,35.6584,0</coordinates>
        </Point>
      </Placemark>
      <Placemark>
        <name>Yoyogi Park</name>
        <Point>
          <coordinates>139.6949,35.6717,0</coordinates>
        </Point>
      </Placemark>
      <Placemark>
        <name>Shinjuku Gyoen</name>
        <Point>
          <coordinates>139.71,35.6852,0</coordinates>
        </Point>
      </Placemark>
      <Placemark>
        <name>Omoide Yokochō</name>
        <Point>
          <coordinates>139.6995,35.693,0</coordinates>
        </Point>
      </Placemark>
      <Placemark>
        <name>Golden Gai</name>
        <Point>
          <coordinates>139.7045,35.694,0</coordinates>
        </Point>
      </Placemark>
      <Placemark>
        <name>Tokyo Metropolitan Government Building</name>
        <Point>
          <coordinates>139.6917,35.6896,0</coordinates>
        </Point>
      </Placemark>
      <Placemark>
        <name>Nakameguro</name>
        <Point>
          <coordinates>139.699,35.644,0</coordinates>
        </Point>
      </Placemark>
      <Placemark>
        <name>Shimokitazawa</name>
        <Point>
          <coordinates>139.668,35.6613,0</coordinates>
        </Point>
      </Placemark>
      <Placemark>
        <name>Inokashira Park</name>
        <Point>
          <coordinates>139.5734,35.6997,0</coordinates>
        </Point>
      </Placemark>
      <Placemark>
        <name>Ghibli Museum</name>
        <Point>
          <coordinates>139.5704,35.6962,0</coordinates>
        </Point>
      </Placemark>
    </Folder>
  </Document>
</kml>
